KUIPER-00035            
1 63748U 25088AA  25213.58335648 -.01374821  00000+0 -11815+0 0  9998
2 63748  51.8893   8.4425 0003945  77.7332 191.2232 15.00311895  5825
KUIPER-00037            
1 63749U 25088AB  25213.58335648 -.00773618  00000+0 -61823-1 0  9991
2 63749  51.8896   7.7021 0004598   7.7056 170.5208 15.02324680  4161
KUIPER-00038            
1 63750U 25088AC  25213.58335648 -.00834811  00000+0 -26788-1 0  9997
2 63750  51.8725   0.7388 0004772  72.5011 315.6640 15.34278729  5674
KUIPER-00039            
1 64500U 25134A   25213.45621740  .00026065  00000+0  76109-3 0  9996
2 64500  51.8681 143.0988 0007249 251.1730 108.8470 15.35121250  7235
KUIPER-00040            
1 64501U 25134B   25213.58335648 -.00919597  00000+0 -48243-1 0  9999
2 64501  51.8774 143.6085 0012403 261.6007 241.4250 15.17848720  6770
KUIPER-00041            
1 64502U 25134C   25213.58335648  .00014790  00000+0  76905-3 0  9997
2 64502  51.8727 143.9604 0008246 256.4675  40.8295 15.16237232  3891
KUIPER-00042            
1 64503U 25134D   25213.58335648 -.00004927  00000+0 -17803-3 0  9993
2 64503  51.8694 142.8774 0009082 255.5169 253.9899 15.25536910  6781
KUIPER-00043            
1 64504U 25134E   25213.19821564 -.00017710  00000+0 -50484-3 0  9994
2 64504  51.8688 144.3720 0007782 243.1924 116.8266 15.34903796  7191
